[{"OBJECT_NAME":"TIANHUI 4B","OBJECT_ID":"2021-134B","EPOCH":"2026-03-09T23:41:45.383712","MEAN_MOTION":15.45143214,"ECCENTRICITY":0.001131,"INCLINATION":88.9796,"RA_OF_ASC_NODE":336.7972,"ARG_OF_PERICENTER":100.8568,"MEAN_ANOMALY":259.3964,"EPHEMERIS_TYPE":0,"CLASSIFICATION_TYPE":"U","NORAD_CAT_ID":50573,"ELEMENT_SET_NO":999,"REV_AT_EPOCH":23451,"BSTAR":0.00022134909,"MEAN_MOTION_DOT":0.00010536,"MEAN_MOTION_DDOT":0},{"OBJECT_NAME":"SHIYAN-32 02","OBJECT_ID":"2025-255C","EPOCH":"2026-03-09T22:32:46.464288","MEAN_MOTION":15.40269108,"ECCENTRICITY":0.00088844,"INCLINATION":52.9927,"RA_OF_ASC_NODE":124.9881,"ARG_OF_PERICENTER":227.8848,"MEAN_ANOMALY":132.14,"EPHEMERIS_TYPE":0,"CLASSIFICATION_TYPE":"U","NORAD_CAT_ID":66378,"ELEMENT_SET_NO":999,"REV_AT_EPOCH":1865,"BSTAR":0.00055801382,"MEAN_MOTION_DOT":0.00022495,"MEAN_MOTION_DDOT":0}]
